{"history": {"dailysummary": [{"maxdewpti": "77", "minwspdm": "0", "snowdepthi": "", "maxvisi": "2.2", "snowfallm": "", "thunder": "0", "tornado": "0", "since1jancoolingdegreedays": "", "minvisi": "1.0", "since1julheatingdegreedays": "", "maxtempm": "31", "mintempi": "74", "precipm": "0.0", "snowdepthm": "", "minpressurei": "29.71", "monthtodatecoolingdegreedays": "", "date": {"tzname": "Asia/Kolkata", "min": "00", "pretty": "12:00 AM IST on April 05, 2018", "mday": "05", "mon": "04", "year": "2018", "hour": "00"}, "mintempm": "23", "coolingdegreedays": "15", "meandewptm": "23", "meandewpti": "74", "meanpressurem": "1006.77", "minvism": "2.0", "meanwdird": "317", "gdegreedays": "30", "meantempm": "26", "minpressurem": "1006", "maxvism": "3.5", "maxpressurem": "1008", "monthtodatesnowfalli": "", "maxwspdi": "7", "minhumidity": "62", "mindewpti": "73", "meanwindspdi": "2", "meanvism": "3.0", "since1julheatingdegreedaysnormal": "", "mindewptm": "23", "since1sepcoolingdegreedaysnormal": "", "precipsource": "3Or6HourObs", "since1julsnowfalli": "", "since1sepcoolingdegreedays": "", "coolingdegreedaysnormal": "", "maxtempi": "87", "monthtodateheatingdegreedaysnormal": "", "snow": "0", "since1julsnowfallm": "", "snowfalli": "", "hail": "0", "maxwspdm": "11", "meanvisi": "1.9", "minwspdi": "0", "meantempi": "80", "fog": "0", "since1sepheatingdegreedaysnormal": "", "since1sepheatingdegreedays": "", "maxdewptm": "25", "meanwdire": "NW", "monthtodateheatingdegreedays": "", "maxpressurei": "29.77", "meanwindspdm": "3", "precipi": "0.00", "heatingdegreedays": "0", "monthtodatecoolingdegreedaysnormal": "", "maxhumidity": "85", "rain": "0", "meanpressurei": "29.73", "since1jancoolingdegreedaysnormal": "", "monthtodatesnowfallm": "", "humidity": "74", "heatingdegreedaysnormal": ""}], "date": {"tzname": "Asia/Kolkata", "min": "00", "pretty": "April 5, 2018", "mday": "05", "mon": "04", "year": "2018", "hour": "00"}, "utcdate": {"tzname": "UTC", "min": "30", "pretty": "April 4, 2018", "mday": "04", "mon": "04", "year": "2018", "hour": "18"}, "observations": [{"wdird": "330", "tempm": "29.0", "thunder": "0", "wspdi": "6.9", "rain": "0", "tornado": "0", "visi": "2.2", "snow": "0", "precipi": "-9999.00", "pressurem": "1007", "pressurei": "29.74", "precipm": "-9999.00", "wgustm": "-9999.0", "date": {"tzname": "Asia/Kolkata", "min": "00", "pretty": "12:00 AM IST on April 05, 2018", "mday": "05", "mon": "04", "year": "2018", "hour": "00"}, "heatindexi": "90.9", "icon": "hazy", "metar": "METAR VABB 041830Z 33006KT 3500 HZ NSC 29/23 Q1007 NOSIG", "windchillm": "-999", "heatindexm": "32.7", "fog": "0", "conds": "Haze", "vism": "3.5", "tempi": "84.2", "wdire": "NNW", "windchilli": "-999", "wspdm": "11.1", "dewpti": "73.4", "hail": "0", "hum": "70", "utcdate": {"tzname": "UTC", "min": "30", "pretty": "6:30 PM GMT on April 04, 2018", "mday": "04", "mon": "04", "year": "2018", "hour": "18"}, "dewptm": "23.0", "wgusti": "-9999.0"}, {"wdird": "300", "tempm": "29.0", "thunder": "0", "wspdi": "4.6", "rain": "0", "tornado": "0", "visi": "2.2", "snow": "0", "precipi": "-9999.00", "pressurem": "1007", "pressurei": "29.74", "precipm": "-9999.00", "wgustm": "-9999.0", "date": {"tzname": "Asia/Kolkata", "min": "00", "pretty": "1:00 AM IST on April 05, 2018", "mday": "05", "mon": "04", "year": "2018", "hour": "01"}, "heatindexi": "90.9", "icon": "hazy", "metar": "METAR VABB 041930Z 30004KT 3500 HZ NSC 29/23 Q1007 NOSIG", "windchillm": "-999", "heatindexm": "32.7", "fog": "0", "conds": "Haze", "vism": "3.5", "tempi": "84.2", "wdire": "WNW", "windchilli": "-999", "wspdm": "7.4", "dewpti": "73.4", "hail": "0", "hum": "70", "utcdate": {"tzname": "UTC", "min": "30", "pretty": "7:30 PM GMT on April 04, 2018", "mday": "04", "mon": "04", "year": "2018", "hour": "19"}, "dewptm": "23.0", "wgusti": "-9999.0"}, {"wdird": "310", "tempm": "28.0", "thunder": "0", "wspdi": "3.5", "rain": "0", "tornado": "0", "visi": "2.2", "snow": "0", "precipi": "-9999.00", "pressurem": "1006", "pressurei": "29.71", "precipm": "-9999.00", "wgustm": "-9999.0", "date": {"tzname": "Asia/Kolkata", "min": "00", "pretty": "2:00 AM IST on April 05, 2018", "mday": "05", "mon": "04", "year": "2018", "hour": "02"}, "heatindexi": "88.2", "icon": "hazy", "metar": "METAR VABB 042030Z 31003KT 3500 HZ NSC 28/23 Q1006 NOSIG", "windchillm": "-999", "heatindexm": "31.2", "fog": "0", "conds": "Haze", "vism": "3.5", "tempi": "82.4", "wdire": "NW", "windchilli": "-999", "wspdm": "5.6", "dewpti": "73.4", "hail": "0", "hum": "74", "utcdate": {"tzname": "UTC", "min": "30", "pretty": "8:30 PM GMT on April 04, 2018", "mday": "04", "mon": "04", "year": "2018", "hour": "20"}, "dewptm": "23.0", "wgusti": "-9999.0"}, {"wdird": "", "tempm": "26", "thunder": "0", "wspdi": "0.0", "rain": "0", "tornado": "0", "visi": "1", "snow": "0", "precipi": "", "pressurem": "1006", "pressurei": "29.71", "precipm": "", "wgustm": "", "date": {"tzname": "Asia/Kolkata", "min": "30", "pretty": "2:30 AM IST on April 05, 2018", "mday": "05", "mon": "04", "year": "2018", "hour": "02"}, "heatindexi": "-9999", "icon": "hazy", "metar": "AAXX 04214 43003 31995 00000 10260 20231 40061 70500 333 59018", "windchillm": "-999", "heatindexm": "-9999", "fog": "0", "conds": "Haze", "vism": "2", "tempi": "79", "wdire": "", "windchilli": "-999", "wspdm": "0.0", "dewpti": "74", "hail": "0", "hum": "79", "utcdate": {"tzname": "UTC", "min": "00", "pretty": "9:00 PM GMT on April 04, 2018", "mday": "04", "mon": "04", "year": "2018", "hour": "21"}, "dewptm": "23", "wgusti": ""}, {"wdird": "0", "tempm": "28.0", "thunder": "0", "wspdi": "0.0", "rain": "0", "tornado": "0", "visi": "2.2", "snow": "0", "precipi": "-9999.00", "pressurem": "1006", "pressurei": "29.71", "precipm": "-9999.00", "wgustm": "-9999.0", "date": {"tzname": "Asia/Kolkata", "min": "30", "pretty": "2:30 AM IST on April 05, 2018", "mday": "05", "mon": "04", "year": "2018", "hour": "02"}, "heatindexi": "88.2", "icon": "hazy", "metar": "METAR VABB 042100Z 00000KT 3500 HZ NSC 28/23 Q1006 NOSIG", "windchillm": "-999", "heatindexm": "31.2", "fog": "0", "conds": "Haze", "vism": "3.5", "tempi": "82.4", "wdire": "North", "windchilli": "-999", "wspdm": "0.0", "dewpti": "73.4", "hail": "0", "hum": "74", "utcdate": {"tzname": "UTC", "min": "00", "pretty": "9:00 PM GMT on April 04, 2018", "mday": "04", "mon": "04", "year": "2018", "hour": "21"}, "dewptm": "23.0", "wgusti": "-9999.0"}, {"wdird": "0", "tempm": "28.0", "thunder": "0", "wspdi": "0.0", "rain": "0", "tornado": "0", "visi": "2.2", "snow": "0", "precipi": "-9999.00", "pressurem": "1006", "pressurei": "29.71", "precipm": "-9999.00", "wgustm": "-9999.0", "date": {"tzname": "Asia/Kolkata", "min": "00", "pretty": "3:00 AM IST on April 05, 2018", "mday": "05", "mon": "04", "year": "2018", "hour": "03"}, "heatindexi": "89.5", "icon": "hazy", "metar": "METAR VABB 042130Z 00000KT 3500 BR NSC 28/24 Q1006 NOSIG", "windchillm": "-999", "heatindexm": "31.9", "fog": "0", "conds": "Mist", "vism": "3.5", "tempi": "82.4", "wdire": "North", "windchilli": "-999", "wspdm": "0.0", "dewpti": "75.2", "hail": "0", "hum": "79", "utcdate": {"tzname": "UTC", "min": "30", "pretty": "9:30 PM GMT on April 04, 2018", "mday": "04", "mon": "04", "year": "2018", "hour": "21"}, "dewptm": "24.0", "wgusti": "-9999.0"}, {"wdird": "0", "tempm": "28.0", "thunder": "0", "wspdi": "0.0", "rain": "0", "tornado": "0", "visi": "2.2", "snow": "0", "precipi": "-9999.00", "pressurem": "1006", "pressurei": "29.71", "precipm": "-9999.00", "wgustm": "-9999.0", "date": {"tzname": "Asia/Kolkata", "min": "30", "pretty": "3:30 AM IST on April 05, 2018", "mday": "05", "mon": "04", "year": "2018", "hour": "03"}, "heatindexi": "89.5", "icon": "hazy", "metar": "METAR VABB 042200Z 00000KT 3500 BR NSC 28/24 Q1006 NOSIG", "windchillm": "-999", "heatindexm": "31.9", "fog": "0", "conds": "Mist", "vism": "3.5", "tempi": "82.4", "wdire": "North", "windchilli": "-999", "wspdm": "0.0", "dewpti": "75.2", "hail": "0", "hum": "79", "utcdate": {"tzname": "UTC", "min": "00", "pretty": "10:00 PM GMT on April 04, 2018", "mday": "04", "mon": "04", "year": "2018", "hour": "22"}, "dewptm": "24.0", "wgusti": "-9999.0"}, {"wdird": "0", "tempm": "28.0", "thunder": "0", "wspdi": "0.0", "rain": "0", "tornado": "0", "visi": "2.2", "snow": "0", "precipi": "-9999.00", "pressurem": "1006", "pressurei": "29.71", "precipm": "-9999.00", "wgustm": "-9999.0", "date": {"tzname": "Asia/Kolkata", "min": "00", "pretty": "5:00 AM IST on April 05, 2018", "mday": "05", "mon": "04", "year": "2018", "hour": "05"}, "heatindexi": "89.5", "icon": "hazy", "metar": "METAR VABB 042330Z 00000KT 3500 BR NSC 28/24 Q1006 NOSIG", "windchillm": "-999", "heatindexm": "31.9", "fog": "0", "conds": "Mist", "vism": "3.5", "tempi": "82.4", "wdire": "North", "windchilli": "-999", "wspdm": "0.0", "dewpti": "75.2", "hail": "0", "hum": "79", "utcdate": {"tzname": "UTC", "min": "30", "pretty": "11:30 PM GMT on April 04, 2018", "mday": "04", "mon": "04", "year": "2018", "hour": "23"}, "dewptm": "24.0", "wgusti": "-9999.0"}, {"wdird": "", "tempm": "25", "thunder": "0", "wspdi": "0.0", "rain": "0", "tornado": "0", "visi": "1", "snow": "0", "precipi": "", "pressurem": "1006", "pressurei": "29.72", "precipm": "", "wgustm": "", "date": {"tzname": "Asia/Kolkata", "min": "30", "pretty": "5:30 AM IST on April 05, 2018", "mday": "05", "mon": "04", "year": "2018", "hour": "05"}, "heatindexi": "-9999", "icon": "hazy", "metar": "AAXX 05004 43003 31995 00000 10250 20229 40063 70500 333 59012", "windchillm": "-999", "heatindexm": "-9999", "fog": "0", "conds": "Haze", "vism": "2", "tempi": "77", "wdire": "", "windchilli": "-999", "wspdm": "0.0", "dewpti": "73", "hail": "0", "hum": "85", "utcdate": {"tzname": "UTC", "min": "00", "pretty": "12:00 AM GMT on April 05, 2018", "mday": "05", "mon": "04", "year": "2018", "hour": "00"}, "dewptm": "23", "wgusti": ""}, {"wdird": "", "tempm": "28", "thunder": "0", "wspdi": "0.0", "rain": "0", "tornado": "0", "visi": "1", "snow": "0", "precipi": "", "pressurem": "1008", "pressurei": "29.76", "precipm": "", "wgustm": "", "date": {"tzname": "Asia/Kolkata", "min": "30", "pretty": "8:30 AM IST on April 05, 2018", "mday": "05", "mon": "04", "year": "2018", "hour": "08"}, "heatindexi": "-9999", "icon": "hazy", "metar": "AAXX 05034 43003 31995 00000 10284 20241 40077 70500 333 20234 59015 555 10000", "windchillm": "-999", "heatindexm": "-9999", "fog": "0", "conds": "Haze", "vism": "2", "tempi": "83", "wdire": "", "windchilli": "-999", "wspdm": "0.0", "dewpti": "75", "hail": "0", "hum": "72", "utcdate": {"tzname": "UTC", "min": "00", "pretty": "3:00 AM GMT on April 05, 2018", "mday": "05", "mon": "04", "year": "2018", "hour": "03"}, "dewptm": "24", "wgusti": ""}, {"wdird": "0", "tempm": "29.0", "thunder": "0", "wspdi": "0.0", "rain": "0", "tornado": "0", "visi": "1.9", "snow": "0", "precipi": "-9999.00", "pressurem": "1008", "pressurei": "29.77", "precipm": "-9999.00", "wgustm": "-9999.0", "date": {"tzname": "Asia/Kolkata", "min": "00", "pretty": "9:00 AM IST on April 05, 2018", "mday": "05", "mon": "04", "year": "2018", "hour": "09"}, "heatindexi": "94.1", "icon": "hazy", "metar": "METAR VABB 050330Z 00000KT 3000 HZ NSC 29/25 Q1008 NOSIG", "windchillm": "-999", "heatindexm": "34.5", "fog": "0", "conds": "Haze", "vism": "3.0", "tempi": "84.2", "wdire": "North", "windchilli": "-999", "wspdm": "0.0", "dewpti": "77.0", "hail": "0", "hum": "79", "utcdate": {"tzname": "UTC", "min": "30", "pretty": "3:30 AM GMT on April 05, 2018", "mday": "05", "mon": "04", "year": "2018", "hour": "03"}, "dewptm": "25.0", "wgusti": "-9999.0"}, {"wdird": "170", "tempm": "30.0", "thunder": "0", "wspdi": "3.5", "rain": "0", "tornado": "0", "visi": "1.9", "snow": "0", "precipi": "-9999.00", "pressurem": "1008", "pressurei": "29.77", "precipm": "-9999.00", "wgustm": "-9999.0", "date": {"tzname": "Asia/Kolkata", "min": "30", "pretty": "9:30 AM IST on April 05, 2018", "mday": "05", "mon": "04", "year": "2018", "hour": "09"}, "heatindexi": "93.4", "icon": "hazy", "metar": "METAR VABB 050400Z 17003KT 3000 HZ NSC 30/23 Q1008 NOSIG", "windchillm": "-999", "heatindexm": "34.1", "fog": "0", "conds": "Haze", "vism": "3.0", "tempi": "86.0", "wdire": "South", "windchilli": "-999", "wspdm": "5.6", "dewpti": "73.4", "hail": "0", "hum": "66", "utcdate": {"tzname": "UTC", "min": "00", "pretty": "4:00 AM GMT on April 05, 2018", "mday": "05", "mon": "04", "year": "2018", "hour": "04"}, "dewptm": "23.0", "wgusti": "-9999.0"}, {"wdird": "90", "tempm": "31.0", "thunder": "0", "wspdi": "3.5", "rain": "0", "tornado": "0", "visi": "1.9", "snow": "0", "precipi": "-9999.00", "pressurem": "1008", "pressurei": "29.77", "precipm": "-9999.00", "wgustm": "-9999.0", "date": {"tzname": "Asia/Kolkata", "min": "00", "pretty": "10:00 AM IST on April 05, 2018", "mday": "05", "mon": "04", "year": "2018", "hour": "10"}, "heatindexi": "95.6", "icon": "hazy", "metar": "METAR VABB 050430Z 09003KT 3000 HZ NSC 31/23 Q1008 NOSIG", "windchillm": "-999", "heatindexm": "35.4", "fog": "0", "conds": "Haze", "vism": "3.0", "tempi": "87.8", "wdire": "East", "windchilli": "-999", "wspdm": "5.6", "dewpti": "73.4", "hail": "0", "hum": "62", "utcdate": {"tzname": "UTC", "min": "30", "pretty": "4:30 AM GMT on April 05, 2018", "mday": "05", "mon": "04", "year": "2018", "hour": "04"}, "dewptm": "23.0", "wgusti": "-9999.0"}]}, "response": {"termsofService": "http://www.wunderground.com/weather/api/d/terms.html", "version": "0.1", "features": {"history": 1}}}